address_id,country,city,state,street,postal_code,latitude,longitude,description
23e7f117,Canada,North Jennifer,Ontario,8985 King St,P1Z9K6,42.57720258858331,-83.8689836,Ipsum ut expedita ut.
eaad8d3d,Canada,West Christopher,Ontario,9578 Dundas St,P1Z9K0,55.19878855521079,-84.50354791,Voluptas est veniam vero.
80b37358,Canada,East Dawn,Ontario,9518 Yonge St,M9E5T7,55.84446969763167,-80.73948513,Modi ipsa natus culpa.
69ec0c4b,Canada,Port David,Ontario,8784 Bay St,K1W8Y2,46.839579960393074,-74.93875731,Pariatur unde quod.
084f335c,Canada,South Michael,Ontario,7912 Bloor St,L1P3B7,52.153247282340665,-80.59013959,Dicta earum eos neque amet.
bbba5c28,Canada,East Teresa,Ontario,7628 Main St,M6A2R1,42.36236036655514,-78.79606053,Numquam tempora id.
e9c41569,Canada,East Michaelview,Ontario,3323 Main St,K2M6Z1,50.843777231245774,-88.27931763,Molestiae rerum debitis.
33bb17e7,Canada,New Chad,Ontario,6293 Queen St,N5V4N2,48.336266581775284,-80.24467751,Iure qui voluptas aperiam.
5edfaa4f,Canada,Lake Barbara,Ontario,8199 Dundas St,P8H8W5,48.604387138500826,-87.42131738,Sapiente illum non tenetur.
8d91f8d1,Canada,Victoriatown,Ontario,8798 Bay St,L6P7M2,46.52450772787082,-83.47687432,Non ea nemo nulla delectus.
2177d56e,Canada,South Darrenhaven,Ontario,6644 Bay St,N6Q7D8,45.54068541211224,-84.71316173,Quidem culpa occaecati.
e9a61bd8,Canada,East Jackstad,Ontario,5421 Dundas St,M3F1S7,44.15127226637415,-81.66871661,Rerum aut asperiores.
068a441d,Canada,Kington,Ontario,5050 Yonge St,L9L3V2,49.97247307527265,-89.612735,Quod reprehenderit quisquam.
940336d6,Canada,West Lori,Ontario,4135 Queen St,L7C5A3,48.087452882263456,-78.31170636,Non tenetur eum.
cca2ed7c,Canada,New Carrie,Ontario,7958 Queen St,M6F8E4,55.511192848336314,-88.2580366,Illum odio itaque et.
0478339a,Canada,Lake Christinafurt,Ontario,4240 Bloor St,M8Y5J4,53.54531772698461,-86.15623887,Rem alias libero voluptatem.
7691b466,Canada,West Olivia,Ontario,1567 King St,M3R4Q2,42.98971023603393,-90.14603576,Quia beatae assumenda.
6344c77f,Canada,Dayton,Ontario,7177 King St,K7D5V4,48.07513976692201,-94.97724554,Alias ex vitae.
ce304918,Canada,Jillhaven,Ontario,8179 Queen St,P7T8G5,48.580278042922046,-78.08724329,Hic mollitia suscipit.
eede8160,Canada,Lake Andreaton,Ontario,1377 Main St,M2Y5E1,54.55928274344794,-80.94920759,Nemo non id minima.
8e95b23a,Canada,Rushmouth,Ontario,7318 Bloor St,P4V4T3,42.209011476375544,-90.9170528,Consequatur voluptates autem.
cf0d8fed,Canada,Carolborough,Ontario,9854 Main St,P3V5G8,48.436649931472914,-94.84933837,Exercitationem fugit et esse.
11168883,Canada,Sarahbury,Ontario,8347 Queen St,N8B6R5,42.36647930085254,-85.6332716,Dolorem natus vel facilis.
5aa7a656,Canada,Port David,Ontario,2733 Queen St,M6V7O6,51.08778429297162,-80.09533674,Impedit minus perspiciatis.
16edb7de,Canada,Robertberg,Ontario,7334 Queen St,N9N3L4,44.96169177287495,-91.33967815,Atque eius veniam voluptas.
16aab67e,Canada,Laraborough,Ontario,9979 Bay St,L8M3F6,45.892541825116055,-85.33661314,Illum voluptatibus quae.
21fec0f7,Canada,North Aprilshire,Ontario,7397 Main St,P2L8R4,44.19779948733206,-86.1792413,Doloremque quae sint.
3dc0e437,Canada,West Lindaview,Ontario,3493 Dundas St,M8K8T8,53.40821822,-88.64835375,Nobis est sapiente in a.
1d3140f1,Canada,Welchton,Ontario,531 Yonge St,N7S4P9,54.9616835,-88.30647332,Pariatur soluta repellat nam.
3be434bd,Canada,New Benjamin,Ontario,4111 King St,K4D9M1,43.08337146311915,-81.11520153,Sed odio similique.
c134e566,Canada,Chrismouth,Ontario,2038 Queen St,P3Q8A2,47.98419390798103,-90.04806044,Voluptate ad repudiandae non.
13d04acc,Canada,Port Cynthia,Ontario,337 Bloor St,N1G5P1,42.674577963874945,-83.33209116,Omnis expedita placeat.
08f5452a,Canada,Lake Alexis,Ontario,7298 Yonge St,P5E5N8,44.767572697755234,-89.6288708,Animi aliquid a velit.
0997b8fb,Canada,Walkerbury,Ontario,6142 Dundas St,K5H1M1,56.75690873242629,-92.89018557,Eum fugit pariatur quis.
6446a6c7,Canada,Ericland,Ontario,3520 Main St,P6I8H8,52.73378340416026,-77.42929409,Magnam maxime qui dolore.
90f19f24,Canada,Port Mindyfort,Ontario,9001 Bay St,L2R1Z5,53.20478636005431,-76.3341278,Neque quibusdam harum.
769bfede,Canada,Birdhaven,Ontario,9027 Main St,P1Y9P1,48.551134060695425,-91.97924894,Magni quasi asperiores eos.
35e4300d,Canada,Deborahborough,Ontario,920 Bloor St,P9K1P3,44.70657457638797,-75.07931818,Id quas itaque quod.
c393f77f,Canada,Lake Brooke,Ontario,7733 Bay St,M1L9J6,42.50463796377746,-78.49969121,Et cupiditate error nam.
44031803,Canada,East Patricia,Ontario,8099 Queen St,P5C3F7,56.04072474672819,-85.73143004,Possimus praesentium quo.
bf8e2aa9,Canada,Lisafort,Ontario,3960 Bay St,N2O1N1,51.338589414609714,-77.84379098,Maxime nisi molestias quia.
3198244b,Canada,Lake Danielleborough,Ontario,5358 Dundas St,P8G5G9,46.252146954583225,-82.3676864,Debitis iure ea.
7696bc2c,Canada,Gonzalezberg,Ontario,6288 Bloor St,K7Z8O9,49.779801409748316,-80.06514797,Optio magnam tenetur eaque.
0c33703c,Canada,East Jasmin,Ontario,6123 King St,P7G3V7,46.412814167233265,-78.24691924,Fuga vero alias at.
d2a9d50f,Canada,Jadeshire,Ontario,2153 Bloor St,M2B9W4,49.48987000122324,-78.70296352,Quos eveniet assumenda.
967aec4d,Canada,Port Ann,Ontario,9114 King St,L5B2T8,45.33124405446959,-92.93620692,Esse sunt eos.
041ee5d1,Canada,Walkermouth,Ontario,3265 King St,L9L3Y5,47.541419106163296,-88.69424273,Impedit est minus.
f1dbb74c,Canada,South Brandon,Ontario,3323 Bloor St,P8X4Y4,49.095348136194104,-83.53094388,Voluptas sed sed laborum.
d81a31be,Canada,Port Kevin,Ontario,1223 Dundas St,N1H3A4,45.07408528490116,-79.74170926,Qui atque hic cum aperiam.
75cb3422,Canada,Roberttown,Ontario,7541 Bloor St,M5L3N4,41.94193036118578,-82.13533302,Commodi id blanditiis ab.
8a5f6c6b,Canada,Port Davidborough,Ontario,2064 Main St,K1A3A9,53.34126607940441,-80.97829711,Non hic et dolor.
f52a494d,Canada,Ellisside,Ontario,3414 Yonge St,M7Z7I3,44.44163546183459,-86.27621473,Pariatur dignissimos nam ab.
f7be42e3,Canada,New Amandafort,Ontario,9639 Dundas St,L7N9N4,42.916205607854714,-92.79817247,Eaque corrupti ratione non.
fd2cf65e,Canada,North Joshuamouth,Ontario,4626 Queen St,L1Q3W9,46.097924346293205,-80.75043291,Consequatur eos asperiores.
1e5a2187,Canada,West Debbie,Ontario,9038 Yonge St,M3B2L7,56.89233908699784,-77.72712281,Iste minima mollitia ullam.
0137944b,Canada,Thompsonchester,Ontario,3894 Queen St,K5C5Z7,56.00518785885707,-90.13444284,Porro vitae facere quod.
6a08958a,Canada,Hallhaven,Ontario,4325 Main St,P5X7D2,51.73332319944245,-94.16438219,Neque distinctio iste.
cdde933f,Canada,Port Laurie,Ontario,4461 Bloor St,N7G2B8,51.86240125209144,-76.06030588,Architecto voluptas neque.
e8e17380,Canada,Lindseyville,Ontario,9773 Dundas St,M9W9S3,51.95592135310655,-94.91682629,Tempore natus aut nobis.
16ef4190,Canada,West Courtney,Ontario,1085 Bloor St,L8K7E8,48.233155961430825,-88.38481755,Hic cum quos sint.
a48eda59,Canada,West Troy,Ontario,5872 Bloor St,M5V6M4,50.410761022961964,-90.73763451,Eius et architecto quidem.
457cd5fe,Canada,South Kristenview,Ontario,2145 King St,M8G8L5,51.142575946596125,-93.26085145,Nulla vel magnam quidem.
72612852,Canada,Hughesport,Ontario,1203 Main St,P1P6O1,51.752005041971884,-77.44146182,Libero odit ex commodi fuga.
eb6672a3,Canada,New Tracyfurt,Ontario,4202 Dundas St,K7C5A9,52.38609516228952,-77.6377045,Eveniet maiores aut delectus.
7b99486b,Canada,New Shaunland,Ontario,6760 Yonge St,P7E7O4,47.72636211886129,-84.99992886,Nulla facere dolorum iure.
fe57bdee,Canada,Port Lisa,Ontario,9814 King St,M8W1H5,42.708285120795026,-87.15562499,Incidunt porro atque.
de2a7e19,Canada,Beanfort,Ontario,5005 Queen St,M6Z2R8,54.132613393669416,-93.22671688,Numquam neque illo labore.
565c2366,Canada,Anthonychester,Ontario,7795 Dundas St,L4L3V6,43.89060774056698,-83.42206701,Debitis corrupti deleniti ab.
de752884,Canada,East Victoriatown,Ontario,4923 Dundas St,N2A6O9,56.684282879983606,-85.29372039,Quisquam nisi qui.
5444bec8,Canada,Lake Tracy,Ontario,8129 King St,N8S8W1,47.94489793865351,-76.05677838,Iste vel vero debitis.
4c03df68,Canada,Lake Donaldland,Ontario,2569 Yonge St,L4Z8A2,43.904430115199865,-85.49018883,Consequatur nihil minima.
fcbc4abe,Canada,New Michael,Ontario,9234 Bloor St,L8M2I5,53.64359997252827,-87.40666606,Aliquam quis dolore quam.
6f5a0f7d,Canada,Jenniferview,Ontario,6433 Dundas St,K8E8A5,45.20166589,-92.06237865,Hic sint rerum est.
2e159427,Canada,Christianchester,Ontario,9913 Main St,L1M7Y8,44.60933963065684,-84.01207662,Qui velit amet.
27dfcc6e,Canada,New James,Ontario,4050 Main St,M2S9J3,52.87592032120109,-89.4108402,Suscipit dicta hic in earum.
f8e06483,Canada,Phillipshaven,Ontario,3419 Main St,P9O5X3,45.20152587878022,-83.3038976,Iusto aliquam alias eius vel.
ead1077a,Canada,Coxmouth,Ontario,4313 Main St,L5M6J8,53.91881522357862,-95.08888789,Natus quam sit veniam.
668c964f,Canada,Flynntown,Ontario,7228 Queen St,P8V7A1,54.49410214324685,-90.95071061,Eum vitae unde officiis.
9cbe170a,Canada,Calvinport,Ontario,9334 Yonge St,N2I1T3,56.35524001162597,-94.55353373,Vitae hic qui repellat.
c7d02f8f,Canada,East Johnmouth,Ontario,7283 Queen St,M2E1S2,51.696420123481005,-75.73406362,Dolore totam perspiciatis.
6e50dcb4,Canada,South Christian,Ontario,9540 Bloor St,P5L9I7,54.13987485248523,-76.47084243,Earum odio vitae doloremque.
d2b65b53,Canada,New Deannaberg,Ontario,8219 Bloor St,N8C4W8,44.48793931177309,-86.03167213,Laborum voluptas iste.
0f1ab75f,Canada,Andersontown,Ontario,5902 Bay St,N3J4I6,45.51240477315711,-90.20059699,Ad eum illo nemo hic.
df8b3624,Canada,Stephenfort,Ontario,6163 King St,N4H5G5,46.77295815,-83.47866716,Fugit ipsa laboriosam.
b03f4bc3,Canada,Lisaside,Ontario,2340 Queen St,L8Q2C1,44.61526618061427,-76.04140888,Animi ea iusto numquam.
64f43b39,Canada,Jessicaland,Ontario,9014 Yonge St,L7U6C7,47.91245399618397,-77.19380812,Natus rem ex aut expedita.
9643917a,Canada,Leefort,Ontario,6337 Bay St,N2J1L5,48.29008540069671,-79.16307675,Et minima deserunt iure.
55377ffe,Canada,Garciaburgh,Ontario,8924 Main St,K3I4H4,50.160153691736724,-93.50876806,Iure sint tenetur.
b604518f,Canada,West Brandyville,Ontario,5197 King St,M2Y2M8,47.56388618234283,-75.21509231,Repellat esse atque.
99a6869e,Canada,Jacksonport,Ontario,6701 Main St,P6T2F8,48.551062091900924,-93.60194867,Ut alias sit delectus.
430bfe5d,Canada,Lake Troy,Ontario,5134 Bloor St,K9U4D2,48.265087502977366,-79.52498792,Atque ullam ad beatae.
4ad06b5b,Canada,Anthonyton,Ontario,8637 Yonge St,N2Q4G3,44.161999384790604,-88.27726405,Itaque modi molestias odio.
39108c61,Canada,Garyside,Ontario,2973 Bay St,K4W4P5,52.80872990464954,-75.88586842,Aliquid unde quae fuga enim.
72ac197f,Canada,Howardbury,Ontario,4307 Bay St,L1I3A9,48.26034148889341,-85.97890314,Sint aliquid repellat sint.
69278bdc,Canada,Davidville,Ontario,7040 Bay St,K2X1W9,50.94714678557629,-92.00714245,Explicabo provident expedita.
3391c4a2,Canada,Chandlerberg,Ontario,7101 Dundas St,P1Q8P6,49.357351942462095,-89.83588527,Aliquid ducimus repellat.
8dbc8d9e,Canada,West Brian,Ontario,1282 Yonge St,M1O9O4,48.27176913316337,-84.32099963,Repudiandae nobis quia.
e62be316,Canada,North Donaldmouth,Ontario,2219 Yonge St,P4V2M5,50.530927103324956,-94.32670755,Consequatur iste maxime.
00ab6988,Canada,East Donna,Ontario,9330 Main St,P7Z3U9,53.486554543576574,-77.09903686,Omnis deserunt rerum cum.
df423afe,Canada,East Donald,Ontario,1923 Bloor St,K8C3G9,45.10424933395629,-76.27557266,Sit sed sed.
